NORAD_CAT_ID,OBJECT_NAME,OBJECT_TYPE,EPOCH,MEAN_MOTION,ECCENTRICITY,INCLINATION,RA_OF_ASC_NODE,ARG_OF_PERICENTER,MEAN_ANOMALY,BSTAR,MEAN_MOTION_DOT,MEAN_MOTION_DDOT,TLE_LINE0,TLE_LINE1,TLE_LINE2,SEMIMAJOR_AXIS,PERIOD,APOGEE,PERIGEE,DECAYED
53398.0,STARLINK-4512,PAYLOAD,2024-01-08 12:11:18,15.08846368,0.00016,53.2185,75.8787,75.7959,284.3211,6.4242e-05,7.35e-06,0.0,0 STARLINK-4512,1 53398U 22097L   24008.50784951  .00000735  00000-0  64242-4 0  9998,2 53398  53.2185  75.8787 0001600  75.7959 284.3211 15.08846368 79078,6917.861,95.437,540.833,538.619,0.0
53398.0,STARLINK-4512,PAYLOAD,2024-01-09 13:37:27,15.08849972,0.0001605,53.2182,71.1189,79.754,280.3633,0.00010537,1.39e-05,0.0,0 STARLINK-4512,1 53398U 22097L   24009.56768436  .00001390  00000-0  10537-3 0  9990,2 53398  53.2182  71.1189 0001605  79.7540 280.3633 15.08849972 79231,6917.85,95.437,540.825,538.605,0.0
53398.0,STARLINK-4512,PAYLOAD,2024-01-10 03:55:56,15.08844038,0.0002267,53.2207,68.4361,133.5011,226.617,-8.3463e-05,-1.617e-05,0.0,0 STARLINK-4512,1 53398U 22097L   24010.16385200 -.00001617  00000-0 -83463-4 0  9995,2 53398  53.2207  68.4361 0002267 133.5011 226.6170 15.08844038 78839,6917.868,95.437,541.301,538.165,0.0
53398.0,STARLINK-4512,PAYLOAD,2024-01-10 10:17:29,15.08840501,0.0001757,53.2183,67.2551,80.1001,280.0189,8.4232e-06,-1.54e-06,0.0,0 STARLINK-4512,1 53398U 22097L   24010.42881317 -.00000154  00000-0  84232-5 0  9994,2 53398  53.2183  67.2551 0001757  80.1001 280.0189 15.08840501 79363,6917.879,95.438,540.959,538.528,0.0
53398.0,STARLINK-4512,PAYLOAD,2024-01-11 08:32:52,15.08850971,0.0001742,53.2186,63.0885,99.0192,261.0998,5.166e-05,5.34e-06,0.0,0 STARLINK-4512,1 53398U 22097L   24011.35616327  .00000534  00000-0  51660-4 0  9993,2 53398  53.2186  63.0885 0001742  99.0192 261.0998 15.08850971 79015,6917.847,95.437,540.917,538.507,0.0
53398.0,STARLINK-4512,PAYLOAD,2024-01-12 03:37:31,15.08838156,0.0001707,53.2184,59.5189,97.2329,262.8858,1.3281e-05,-7.7e-07,0.0,0 STARLINK-4512,1 53398U 22097L   24012.15105407 -.00000077  00000-0  13281-4 0  9994,2 53398  53.2184  59.5189 0001707  97.2329 262.8858 15.08838156 79131,6917.886,95.438,540.932,538.57,0.0
53398.0,STARLINK-4512,PAYLOAD,2024-01-12 09:59:03,15.08837983,0.0001674,53.2184,58.3291,104.2581,255.8597,1.8795e-05,1.1e-07,0.0,0 STARLINK-4512,1 53398U 22097L   24012.41601426  .00000011  00000-0  18795-4 0  9997,2 53398  53.2184  58.3291 0001674 104.2581 255.8597 15.08837983 79661,6917.887,95.438,540.91,538.593,0.0
53398.0,STARLINK-4512,PAYLOAD,2024-01-13 11:25:13,15.0884472,0.0001695,53.2185,53.5707,98.1481,261.9704,-4.612e-06,-3.61e-06,0.0,0 STARLINK-4512,1 53398U 22097L   24013.47585343 -.00000361  00000-0 -46120-5 0  9997,2 53398  53.2185  53.5707 0001695  98.1481 261.9704 15.08844720 79333,6917.866,95.437,540.904,538.558,0.0
53398.0,STARLINK-4512,PAYLOAD,2024-01-13 22:32:56,15.08830939,0.000166,53.2176,51.4945,103.7032,256.4145,8.4189e-05,1.052e-05,0.0,0 STARLINK-4512,1 53398U 22097L   24013.93954245  .00001052  00000-0  84189-4 0  9991,2 53398  53.2176  51.4945 0001660 103.7032 256.4145 15.08830939 79404,6917.908,95.438,540.921,538.625,0.0
53398.0,STARLINK-4512,PAYLOAD,2024-01-14 11:16:01,15.08840433,0.0001459,53.2175,49.1153,90.3214,269.7945,0.00015242,2.139e-05,0.0,0 STARLINK-4512,1 53398U 22097L   24014.46945704  .00002139  00000-0  15242-3 0  9990,2 53398  53.2175  49.1153 0001459  90.3214 269.7945 15.08840433 79480,6917.879,95.438,540.753,538.735,0.0
53398.0,STARLINK-4512,PAYLOAD,2024-01-15 11:06:47,15.08850387,0.0001541,53.2175,44.6494,88.2974,271.8195,0.00013781,1.907e-05,0.0,0 STARLINK-4512,1 53398U 22097L   24015.46305172  .00001907  00000-0  13781-3 0  9998,2 53398  53.2175  44.6494 0001541  88.2974 271.8195 15.08850387 80122,6917.849,95.437,540.78,538.648,0.0
53398.0,STARLINK-4512,PAYLOAD,2024-01-16 10:57:35,15.08840014,0.0001839,53.2182,40.1915,84.5883,275.5319,-6.3484e-07,-2.98e-06,0.0,0 STARLINK-4512,1 53398U 22097L   24016.45666551 -.00000298  00000-0 -63484-6 0  9991,2 53398  53.2182  40.1915 0001839  84.5883 275.5319 15.08840014 79782,6917.88,95.438,541.018,538.473,0.0
53398.0,STARLINK-4512,PAYLOAD,2024-01-17 07:37:35,15.08846107,0.0001565,53.22,36.3224,101.5655,258.5513,9.5762e-05,1.237e-05,0.0,0 STARLINK-4512,1 53398U 22097L   24017.31777758  .00001237  00000-0  95762-4 0  9993,2 53398  53.2200  36.3224 0001565 101.5655 258.5513 15.08846107 79917,6917.862,95.437,540.809,538.644,0.0
53398.0,STARLINK-4512,PAYLOAD,2024-01-18 04:17:37,15.08837196,0.0001557,53.2194,32.4634,84.4398,275.6772,6.1695e-05,6.94e-06,0.0,0 STARLINK-4512,1 53398U 22097L   24018.17890787  .00000694  00000-0  61695-4 0  9990,2 53398  53.2194  32.4634 0001557  84.4398 275.6772 15.08837196 80046,6917.889,95.438,540.831,538.677,0.0
53398.0,STARLINK-4512,PAYLOAD,2024-01-18 10:39:09,15.08842144,0.000163,53.2176,31.2709,88.8267,271.2912,8.7145e-05,1.099e-05,0.0,0 STARLINK-4512,1 53398U 22097L   24018.44386367  .00001099  00000-0  87145-4 0  9992,2 53398  53.2176  31.2709 0001630  88.8267 271.2912 15.08842144 80576,6917.874,95.437,540.866,538.611,0.0
53398.0,STARLINK-4512,PAYLOAD,2024-01-19 07:19:10,15.08845947,0.000157,53.2177,27.4069,89.2035,270.9137,5.7257e-05,6.23e-06,0.0,0 STARLINK-4512,1 53398U 22097L   24019.30498276  .00000623  00000-0  57257-4 0  9994,2 53398  53.2177  27.4069 0001570  89.2035 270.9137 15.08845947 80214,6917.862,95.437,540.813,538.641,0.0
53398.0,STARLINK-4512,PAYLOAD,2024-01-20 03:59:11,15.08836741,0.0001501,53.2168,23.5388,86.9203,273.1961,6.6767e-05,7.75e-06,0.0,0 STARLINK-4512,1 53398U 22097L   24020.16610934  .00000775  00000-0  66767-4 0  9991,2 53398  53.2168  23.5388 0001501  86.9203 273.1961 15.08836741 80346,6917.89,95.438,540.794,538.717,0.0
53398.0,STARLINK-4512,PAYLOAD,2024-01-20 07:09:57,15.08839988,0.0001492,53.2178,22.9456,89.4061,270.7102,9.6838e-05,1.254e-05,0.0,0 STARLINK-4512,1 53398U 22097L   24020.29858705  .00001254  00000-0  96838-4 0  9990,2 53398  53.2178  22.9456 0001492  89.4061 270.7102 15.08839988 80857,6917.88,95.438,540.778,538.713,0.0
53398.0,STARLINK-4512,PAYLOAD,2024-01-21 05:25:22,15.08837721,0.0001491,53.2176,18.7829,94.4473,265.6689,6.884e-05,8.08e-06,0.0,0 STARLINK-4512,1 53398U 22097L   24021.22595167  .00000808  00000-0  68840-4 0  9990,2 53398  53.2176  18.7829 0001491  94.4473 265.6689 15.08837721 80995,6917.887,95.438,540.784,538.721,0.0
53398.0,STARLINK-4512,PAYLOAD,2024-01-21 07:00:45,15.08840509,0.0001704,53.2187,18.4898,109.0034,251.1143,8.1382e-05,1.007e-05,0.0,0 STARLINK-4512,1 53398U 22097L   24021.29218909  .00001007  00000-0  81382-4 0  9991,2 53398  53.2187  18.4898 0001704 109.0034 251.1143 15.08840509 80514,6917.879,95.438,540.923,538.565,0.0
53398.0,STARLINK-4512,PAYLOAD,2024-01-22 06:51:32,15.08842467,0.0001694,53.2202,14.021,74.865,285.2529,0.00012191,1.653e-05,0.0,0 STARLINK-4512,1 53398U 22097L   24022.28578998  .00001653  00000-0  12191-3 0  9996,2 53398  53.2202  14.0210 0001694  74.8650 285.2529 15.08842467 81155,6917.873,95.437,540.91,538.566,0.0
53398.0,STARLINK-4512,PAYLOAD,2024-01-22 08:26:55,15.08843568,0.0001617,53.2201,13.7245,85.8474,274.2703,0.0001563,2.201e-05,0.0,0 STARLINK-4512,1 53398U 22097L   24022.35202798  .00002201  00000-0  15630-3 0  9997,2 53398  53.2201  13.7245 0001617  85.8474 274.2703 15.08843568 80670,6917.869,95.437,540.853,538.616,0.0
53398.0,STARLINK-4512,PAYLOAD,2024-01-23 03:31:33,15.08833905,0.0001755,53.2201,10.157,84.8193,275.3,0.00016466,2.333e-05,0.0,0 STARLINK-4512,1 53398U 22097L   24023.14691298  .00002333  00000-0  16466-3 0  9996,2 53398  53.2201  10.1570 0001755  84.8193 275.3000 15.08833905 80791,6917.899,95.438,540.978,538.55,0.0
53398.0,STARLINK-4512,PAYLOAD,2024-01-23 06:42:19,15.08846329,0.0001649,53.2196,9.5613,105.1605,254.957,5.9786e-05,6.64e-06,0.0,0 STARLINK-4512,1 53398U 22097L   24023.27938726  .00000664  00000-0  59786-4 0  9998,2 53398  53.2196   9.5613 0001649 105.1605 254.9570 15.08846329 80813,6917.861,95.437,540.867,538.585,0.0
53398.0,STARLINK-4512,PAYLOAD,2024-01-24 03:22:19,15.088466,0.0001603,53.2197,5.6962,82.26,277.8574,2.0669e-05,4.1e-07,0.0,0 STARLINK-4512,1 53398U 22097L   24024.14050850  .00000041  00000-0  20669-4 0  9995,2 53398  53.2197   5.6962 0001603  82.2600 277.8574 15.08846600 80942,6917.86,95.437,540.834,538.616,0.0
53398.0,STARLINK-4512,PAYLOAD,2024-01-24 04:57:42,15.0884905,0.0001547,53.2189,5.4033,90.816,269.3009,4.6668e-05,4.55e-06,0.0,0 STARLINK-4512,1 53398U 22097L   24024.20674684  .00000455  00000-0  46668-4 0  9995,2 53398  53.2189   5.4033 0001547  90.8160 269.3009 15.08849050 81440,6917.853,95.437,540.788,538.648,0.0
53398.0,STARLINK-4512,PAYLOAD,2024-01-25 03:13:07,15.08822705,0.0001592,53.2183,1.2425,100.5258,259.5913,0.00025332,3.744e-05,0.0,0 STARLINK-4512,1 53398U 22097L   24025.13411517  .00003744  00000-0  25332-3 0  9990,2 53398  53.2183   1.2425 0001592 100.5258 259.5913 15.08822705 81094,6917.933,95.439,540.9,538.697,0.0
53398.0,STARLINK-4512,PAYLOAD,2024-01-25 04:48:30,15.08841548,0.000152,53.2178,0.9458,82.7924,277.3241,2.3544e-05,8.7e-07,0.0,0 STARLINK-4512,1 53398U 22097L   24025.20035241  .00000087  00000-0  23544-4 0  9995,2 53398  53.2178   0.9458 0001520  82.7924 277.3241 15.08841548 81102,6917.876,95.437,540.792,538.689,0.0
53398.0,STARLINK-4512,PAYLOAD,2024-01-26 04:39:17,15.0883571,0.0001673,53.2197,356.4796,110.9495,249.1676,9.0127e-05,1.146e-05,0.0,0 STARLINK-4512,1 53398U 22097L   24026.19395336  .00001146  00000-0  90127-4 0  9996,2 53398  53.2197 356.4796 0001673 110.9495 249.1676 15.08835710 81746,6917.894,95.438,540.916,538.601,0.0
53398.0,STARLINK-4512,PAYLOAD,2024-01-27 04:30:04,15.08840388,0.0001557,53.22,352.0208,106.7942,253.3221,7.126e-05,8.46e-06,0.0,0 STARLINK-4512,1 53398U 22097L   24027.18755387  .00000846  00000-0  71260-4 0  9995,2 53398  53.2200 352.0208 0001557 106.7942 253.3221 15.08840388 81898,6917.879,95.438,540.821,538.667,0.0
